OBJECT_NAME,OBJECT_ID,EPOCH,MEAN_MOTION,ECCENTRICITY,INCLINATION,RA_OF_ASC_NODE,ARG_OF_PERICENTER,MEAN_ANOMALY,EPHEMERIS_TYPE,CLASSIFICATION_TYPE,NORAD_CAT_ID,ELEMENT_SET_NO,REV_AT_EPOCH,BSTAR,MEAN_MOTION_DOT,MEAN_MOTION_DDOT
CUBEBUG-2 (LO-74),2013-066AA,2026-07-16T19:15:47.811744,14.93973680,.0055539,97.8917,146.9130,289.9004,69.6236,0,U,39440,999,68141,.20214E-3,.2156E-4,0
FUNCUBE-1 (AO-73),2013-066AE,2026-07-16T21:11:52.011168,15.09830753,.0037941,97.8292,169.9592,102.2043,258.3439,0,U,39444,999,68414,.25213E-3,.4077E-4,0
UWE-3,2013-066AG,2026-07-16T19:46:31.675008,14.97205791,.0047571,97.8716,154.1042,218.9248,140.8545,0,U,39446,999,68201,.1784E-3,.2047E-4,0
UNISAT-6,2014-033C,2026-07-16T22:00:02.746080,14.88370346,.0044049,97.7911,350.1131,331.9914,27.8933,0,U,40012,999,65058,.11919E-3,.1066E-4,0
DUCHIFAT-1,2014-033M,2026-07-16T16:46:11.491104,15.71313651,.0002787,98.0414,261.1627,236.8489,123.2505,0,U,40021,999,66037,.77546E-3,.99153E-3,0
QB50P1,2014-033R,2026-07-16T14:32:28.363776,15.18678566,.0010431,98.0963,210.8240,120.5690,239.6573,0,U,40025,999,65749,.21031E-3,.4288E-4,0
LILACSAT-2,2015-049K,2026-07-17T04:33:26.493408,15.52404529,.0008504,97.4622,236.1867,135.6290,224.5645,0,U,40908,999,60040,.17391E-3,.10529E-3,0
FOX-1A (AO-85),2015-058D,2026-07-16T07:51:44.997696,14.91092003,.0132456,64.7725,188.4142,45.3781,315.8042,0,U,40967,999,11791,.15016E-3,.1582E-4,0
CAS-2T & KS-1Q,2016-066G,2026-07-17T03:49:43.427424,14.44772533,.0342144,98.3813,273.5527,38.8094,323.7141,0,U,41847,999,50912,.74643E-4,.472E-5,0
RADFXSAT (FOX-1B),2017-073E,2026-07-17T02:28:24.587904,15.13077780,.0148314,97.4662,64.7083,224.8184,134.0992,0,U,43017,999,46991,.1898E-3,.4326E-4,0
DIWATA-2B,2018-084H,2026-07-17T04:16:27.761376,15.00567760,.0012722,98.1210,35.6997,78.2529,282.0120,0,U,43678,999,42071,.91024E-4,.1084E-4,0
ES'HAIL 2,2018-090A,2026-07-17T03:07:47.983008,1.00272026,.0002296,0.0135,64.9431,93.9394,208.7946,0,U,43700,999,2797,0,.134E-5,0
FOX-1CLIFF (AO-95),2018-099N,2026-07-17T03:43:55.931808,15.27297628,.0007413,97.4364,258.3011,231.7430,128.3143,0,U,43770,999,41779,.21872E-3,.5777E-4,0
ITASAT,2018-099AE,2026-07-17T02:55:20.774208,15.19395297,.0010969,97.4008,249.0402,242.8009,117.2109,0,U,43786,999,41745,.15348E-3,.3185E-4,0
JY1SAT (JO-97),2018-099AX,2026-07-16T17:00:05.990688,15.34550143,.0006995,97.4110,260.6613,153.6431,206.5169,0,U,43803,999,41815,.30396E-3,.10103E-3,0
UWE-4,2018-111E,2026-07-16T18:35:24.211392,15.47882979,.0006445,97.5845,127.5685,188.3610,171.7533,0,U,43880,999,41535,.41089E-3,.21334E-3,0
TIANYAN 01,2019-093C,2026-07-17T04:48:26.263008,14.86559898,.0013404,97.7522,269.6989,354.8082,5.2993,0,U,44881,999,35587,-.57237E-5,-.104E-5,0
RS-44 & BREEZE-KM R/B,2019-096E,2026-07-16T20:53:01.886208,12.79748900,.0218517,82.5243,319.9815,75.0939,287.4247,0,U,44909,999,30614,.21785E-4,.18E-6,0
SALSAT,2020-068K,2026-07-16T21:40:14.441952,15.30185999,.0009381,97.8857,202.7868,186.6655,173.4461,0,U,46495,999,31990,.13754E-3,.3936E-4,0
XW-3 (CAS-9),2021-131B,2026-07-17T04:22:26.240160,14.41382239,.0004454,98.4993,290.4101,25.5674,334.5735,0,U,50466,999,23943,.46833E-4,.108E-5,0
GREENCUBE (IO-117),2022-080E,2026-07-16T06:55:09.765408,6.42583343,.000908,70.1408,288.1261,283.0875,76.8771,0,U,53109,999,9393,0,-.3E-7,0
UMKA 1 (RS40S),2023-091G,2026-07-17T00:40:01.714368,15.21132863,.0012859,97.5032,256.6138,23.3999,336.7819,0,U,57172,999,16854,.14167E-3,.3089E-4,0
CUBESX-HSE 3 (RS42S),2023-091N,2026-07-17T03:53:20.338944,15.31912821,.0009466,97.5073,264.1407,354.7879,5.3262,0,U,57178,999,16901,.22189E-3,.6765E-4,0
MONITOR-3 (RS58S),2023-091Q,2026-07-17T04:31:38.249760,15.28394908,.0010768,97.5065,261.8641,2.6877,357.4418,0,U,57180,999,16887,.20056E-3,.5476E-4,0
MONITOR-4 (RS57S),2023-091S,2026-07-17T03:59:04.183296,15.28481630,.0010778,97.5058,261.8142,2.9901,357.1400,0,U,57182,999,16887,.19495E-3,.5335E-4,0
MONITOR-2 (RS39S),2023-091U,2026-07-17T03:40:19.313184,15.19164167,.0011181,97.5053,256.2443,17.4381,342.7235,0,U,57184,999,16850,.11588E-3,.237E-4,0
SVYATOBOR 1 (RS60S),2023-091X,2026-07-17T03:21:56.698848,15.27081878,.0008549,97.5072,262.1303,357.6450,2.4747,0,U,57187,999,16888,.18038E-3,.472E-4,0
VIZARD-METEO (RS38S),2023-091Z,2026-07-17T04:05:18.086208,15.36911523,.0005502,97.5074,268.2740,331.2823,28.8117,0,U,57189,999,16929,.24552E-3,.8781E-4,0
POLYTECH-UNIVERSE 3 (RS46S),2023-091AB,2026-07-17T04:13:35.904000,15.19377121,.0015895,97.5030,255.7715,31.2078,329.0097,0,U,57191,999,16850,.12729E-3,.2631E-4,0
UTMN 2 (RS27S),2023-091AP,2026-07-17T03:55:25.537728,15.32729298,.0006539,97.5069,265.8124,342.5616,17.5400,0,U,57203,999,16913,.20762E-3,.6485E-4,0
